{
    "links": {
        "self": "http://www.neowsapp.com/rest/v1/neo/3792464?api_key=iIulBulltgU6a56xZRHN4H3l9WmuAYTsLGpBGhQ2"
    },
    "id": "3792464",
    "neo_reference_id": "3792464",
    "name": "(2017 XE62)",
    "designation": "2017 XE62",
    "nasa_jpl_url": "http://ssd.jpl.nasa.gov/sbdb.cgi?sstr=3792464",
    "absolute_magnitude_h": 20.0,
    "estimated_diameter": {
        "kilometers": {
            "estimated_diameter_min": 0.2658,
            "estimated_diameter_max": 0.5943468684
        },
        "meters": {
            "estimated_diameter_min": 265.8,
            "estimated_diameter_max": 594.3468684194
        },
        "miles": {
            "estimated_diameter_min": 0.1651604118,
            "estimated_diameter_max": 0.369309908
        },
        "feet": {
            "estimated_diameter_min": 872.047272,
            "estimated_diameter_max": 1949.9569797852
        }
    },
    "is_potentially_hazardous_asteroid": false,
    "close_approach_data": [
        {
            "close_approach_date": "2017-11-10",
            "close_approach_date_full": "2017-Nov-10 01:28",
            "epoch_date_close_approach": 1510277280000,
            "relative_velocity": {
                "kilometers_per_second": "19.9508171986",
                "kilometers_per_hour": "71822.9419150795",
                "miles_per_hour": "44627.9829916226"
            },
            "miss_distance": {
                "astronomical": "0.3855063227",
                "lunar": "149.9619595303",
                "kilometers": "57670924.747452649",
                "miles": "35835050.9446745962"
            },
            "orbiting_body": "Earth"
        }
    ],
    "orbital_data": {
        "orbit_id": "3",
        "orbit_determination_date": "2018-02-07 06:54:26",
        "first_observation_date": "2017-12-15",
        "last_observation_date": "2018-01-19",
        "data_arc_in_days": 35,
        "observations_used": 46,
        "orbit_uncertainty": "8",
        "minimum_orbit_intersection": ".126619",
        "jupiter_tisserand_invariant": "3.515",
        "epoch_osculation": "2458129.5",
        "eccentricity": ".7871102659610042",
        "semi_major_axis": "1.820315229903742",
        "inclination": "25.82346393219627",
        "ascending_node_longitude": "73.79335347639957",
        "orbital_period": "897.0534708520194",
        "perihelion_distance": ".3875264251613411",
        "perihelion_argument": "229.6634802106631",
        "aphelion_distance": "3.253104034646142",
        "perihelion_time": "2458010.865448190314",
        "mean_anomaly": "47.60969110450304",
        "mean_motion": ".4013138700172162",
        "equinox": "J2000",
        "orbit_class": {
            "orbit_class_type": "APO",
            "orbit_class_description": "Near-Earth asteroid orbits which cross the Earth’s orbit similar to that of 1862 Apollo",
            "orbit_class_range": "a (semi-major axis) > 1.0 AU; q (perihelion) < 1.017 AU"
        }
    },
    "is_sentry_object": false
}